[
    {
        "Altitude(m)": 571440.7818002169,
        "Argument of Periapsis(deg)": 0.026491964442854003,
        "Eccentricity": 0.0,
        "Inclination(deg)": 53.0,
        "Latitude(deg)": -52.10347682362438,
        "Longitude(deg)": -83.85834911765099,
        "Mean Anomaly(deg)": -99.63352852968966,
        "RAAN(deg)": 124.96057347411207,
        "Satellite Name": "Starlink Shell 1 563",
        "Satellite Number": 563,
        "Semi-Major Axis(m)": 6931778.249405717,
        "Time(s)": 760
    },
    {
        "Altitude(m)": 571491.541132654,
        "Argument of Periapsis(deg)": 0.02684054292236524,
        "Eccentricity": 0.0,
        "Inclination(deg)": 53.0,
        "Latitude(deg)": -52.23414184239936,
        "Longitude(deg)": -82.90632068659458,
        "Mean Anomaly(deg)": -99.00669732613291,
        "RAAN(deg)": 124.96005470403462,
        "Satellite Name": "Starlink Shell 1 563",
        "Satellite Number": 563,
        "Semi-Major Axis(m)": 6931778.249405717,
        "Time(s)": 770
    },
    {
        "Altitude(m)": 571538.9606037188,
        "Argument of Periapsis(deg)": 0.027189121401876473,
        "Eccentricity": 0.0,
        "Inclination(deg)": 53.0,
        "Latitude(deg)": -52.35640074064762,
        "Longitude(deg)": -81.94864111789033,
        "Mean Anomaly(deg)": -98.3798661225762,
        "RAAN(deg)": 124.95953593395714,
        "Satellite Name": "Starlink Shell 1 563",
        "Satellite Number": 563,
        "Semi-Major Axis(m)": 6931778.249405717,
        "Time(s)": 780
    },
    {
        "Altitude(m)": 571583.021282246,
        "Argument of Periapsis(deg)": 0.02753769988138771,
        "Eccentricity": 0.0,
        "Inclination(deg)": 53.0,
        "Latitude(deg)": -52.47017067499766,
        "Longitude(deg)": -80.98563495350986,
        "Mean Anomaly(deg)": -97.75303491901953,
        "RAAN(deg)": 124.95901716387965,
        "Satellite Name": "Starlink Shell 1 563",
        "Satellite Number": 563,
        "Semi-Major Axis(m)": 6931778.249405717,
        "Time(s)": 790
    },
    {
        "Altitude(m)": 571623.70557382,
        "Argument of Periapsis(deg)": 0.02788627836089895,
        "Eccentricity": 0.0,
        "Inclination(deg)": 53.0,
        "Latitude(deg)": -52.57537358912502,
        "Longitude(deg)": -80.01764126087079,
        "Mean Anomaly(deg)": -97.12620371546272,
        "RAAN(deg)": 124.95849839380219,
        "Satellite Name": "Starlink Shell 1 563",
        "Satellite Number": 563,
        "Semi-Major Axis(m)": 6931778.249405717,
        "Time(s)": 800
    },
    {
        "Altitude(m)": 571660.9972283739,
        "Argument of Periapsis(deg)": 0.02823485684041019,
        "Eccentricity": 0.0,
        "Inclination(deg)": 53.0,
        "Latitude(deg)": -52.67193646378402,
        "Longitude(deg)": -79.04501248123243,
        "Mean Anomaly(deg)": -96.49937251190607,
        "RAAN(deg)": 124.95797962372474,
        "Satellite Name": "Starlink Shell 1 563",
        "Satellite Number": 563,
        "Semi-Major Axis(m)": 6931778.249405717,
        "Time(s)": 810
    },
    {
        "Altitude(m)": 571694.8813472124,
        "Argument of Periapsis(deg)": 0.028583435319921423,
        "Eccentricity": 0.0,
        "Inclination(deg)": 53.0,
        "Latitude(deg)": -52.75979155555644,
        "Longitude(deg)": -78.06811319423473,
        "Mean Anomaly(deg)": -95.87254130834934,
        "RAAN(deg)": 124.95746085364723,
        "Satellite Name": "Starlink Shell 1 563",
        "Satellite Number": 563,
        "Semi-Major Axis(m)": 6931778.249405717,
        "Time(s)": 820
    },
    {
        "Altitude(m)": 571725.344389485,
        "Argument of Periapsis(deg)": 0.028932013799432665,
        "Eccentricity": 0.0,
        "Inclination(deg)": 53.0,
        "Latitude(deg)": -52.83887662249979,
        "Longitude(deg)": -77.08732031451946,
        "Mean Anomaly(deg)": -95.24571010479265,
        "RAAN(deg)": 124.95694208356976,
        "Satellite Name": "Starlink Shell 1 563",
        "Satellite Number": 563,
        "Semi-Major Axis(m)": 6931778.249405717,
        "Time(s)": 830
    },
    {
        "Altitude(m)": 571752.3741780372,
        "Argument of Periapsis(deg)": 0.029280592278943897,
        "Eccentricity": 0.0,
        "Inclination(deg)": 53.0,
        "Latitude(deg)": -52.909135135019696,
        "Longitude(deg)": -76.10302169791682,
        "Mean Anomaly(deg)": -94.61887890123595,
        "RAAN(deg)": 124.95642331349231,
        "Satellite Name": "Starlink Shell 1 563",
        "Satellite Number": 563,
        "Semi-Major Axis(m)": 6931778.249405717,
        "Time(s)": 840
    },
    {
        "Altitude(m)": 571775.9599046898,
        "Argument of Periapsis(deg)": 0.029629170758455132,
        "Eccentricity": 0.0,
        "Inclination(deg)": 53.0,
        "Latitude(deg)": -52.97051647034632,
        "Longitude(deg)": -75.11561467433634,
        "Mean Anomaly(deg)": -93.99204769767923,
        "RAAN(deg)": 124.95590454341482,
        "Satellite Name": "Starlink Shell 1 563",
        "Satellite Number": 563,
        "Semi-Major Axis(m)": 6931778.249405717,
        "Time(s)": 850
    },
    {
        "Altitude(m)": 571796.0921348892,
        "Argument of Periapsis(deg)": 0.02997774923796637,
        "Eccentricity": 0.0,
        "Inclination(deg)": 53.0,
        "Latitude(deg)": -53.02297608908951,
        "Longitude(deg)": -74.12550619348063,
        "Mean Anomaly(deg)": -93.36521649412245,
        "RAAN(deg)": 124.95538577333735,
        "Satellite Name": "Starlink Shell 1 563",
        "Satellite Number": 563,
        "Semi-Major Axis(m)": 6931778.249405717,
        "Time(s)": 860
    },
    {
        "Altitude(m)": 571812.76281183,
        "Argument of Periapsis(deg)": 0.030326327717477602,
        "Eccentricity": 0.0,
        "Inclination(deg)": 53.0,
        "Latitude(deg)": -53.0664756924574,
        "Longitude(deg)": -73.13311038693938,
        "Mean Anomaly(deg)": -92.73838529056576,
        "RAAN(deg)": 124.95486700325988,
        "Satellite Name": "Starlink Shell 1 563",
        "Satellite Number": 563,
        "Semi-Major Axis(m)": 6931778.249405717,
        "Time(s)": 870
    },
    {
        "Altitude(m)": 571825.9652599121,
        "Argument of Periapsis(deg)": 0.030674906196988847,
        "Eccentricity": 0.0,
        "Inclination(deg)": 53.0,
        "Latitude(deg)": -53.10098335885929,
        "Longitude(deg)": -72.13884859636886,
        "Mean Anomaly(deg)": -92.11155408700904,
        "RAAN(deg)": 124.9543482331824,
        "Satellite Name": "Starlink Shell 1 563",
        "Satellite Number": 563,
        "Semi-Major Axis(m)": 6931778.249405717,
        "Time(s)": 880
    },
    {
        "Altitude(m)": 571835.6941876406,
        "Argument of Periapsis(deg)": 0.031023484676500086,
        "Eccentricity": 0.0,
        "Inclination(deg)": 53.0,
        "Latitude(deg)": -53.1264736587626,
        "Longitude(deg)": -71.14314767282279,
        "Mean Anomaly(deg)": -91.4847228834524,
        "RAAN(deg)": 124.95382946310492,
        "Satellite Name": "Starlink Shell 1 563",
        "Satellite Number": 563,
        "Semi-Major Axis(m)": 6931778.249405717,
        "Time(s)": 890
    },
    {
        "Altitude(m)": 571841.9456899104,
        "Argument of Periapsis(deg)": 0.03137206315601132,
        "Eccentricity": 0.0,
        "Inclination(deg)": 53.0,
        "Latitude(deg)": -53.142927746842645,
        "Longitude(deg)": -70.14643823633997,
        "Mean Anomaly(deg)": -90.85789167989557,
        "RAAN(deg)": 124.95331069302748,
        "Satellite Name": "Starlink Shell 1 563",
        "Satellite Number": 563,
        "Semi-Major Axis(m)": 6931778.249405717,
        "Time(s)": 900
    },
    {
        "Altitude(m)": 571844.7172497116,
        "Argument of Periapsis(deg)": 0.03172064163552255,
        "Eccentricity": 0.0,
        "Inclination(deg)": 53.0,
        "Latitude(deg)": -53.15033343064727,
        "Longitude(deg)": -69.1491544173337,
        "Mean Anomaly(deg)": -90.23106047633891,
        "RAAN(deg)": 124.95279192294998,
        "Satellite Name": "Starlink Shell 1 563",
        "Satellite Number": 563,
        "Semi-Major Axis(m)": 6931778.249405717,
        "Time(s)": 910
    },
    {
        "Altitude(m)": 571844.0077392074,
        "Argument of Periapsis(deg)": 0.0320692201150338,
        "Eccentricity": 0.0,
        "Inclination(deg)": 53.0,
        "Latitude(deg)": -53.14868521519034,
        "Longitude(deg)": -68.15173206310534,
        "Mean Anomaly(deg)": -89.60422927278222,
        "RAAN(deg)": 124.95227315287252,
        "Satellite Name": "Starlink Shell 1 563",
        "Satellite Number": 563,
        "Semi-Major Axis(m)": 6931778.249405717,
        "Time(s)": 920
    },
    {
        "Altitude(m)": 571839.8174202248,
        "Argument of Periapsis(deg)": 0.032417798594545036,
        "Eccentricity": 0.0,
        "Inclination(deg)": 53.0,
        "Latitude(deg)": -53.137984323092525,
        "Longitude(deg)": -67.15460693175157,
        "Mean Anomaly(deg)": -88.97739806922546,
        "RAAN(deg)": 124.95175438279504,
        "Satellite Name": "Starlink Shell 1 563",
        "Satellite Number": 563,
        "Semi-Major Axis(m)": 6931778.249405717,
        "Time(s)": 930
    },
    {
        "Altitude(m)": 571832.1479441487,
        "Argument of Periapsis(deg)": 0.03276637707405627,
        "Eccentricity": 0.0,
        "Inclination(deg)": 53.0,
        "Latitude(deg)": -53.11823869009741,
        "Longitude(deg)": -66.15821439589337,
        "Mean Anomaly(deg)": -88.3505668656688,
        "RAAN(deg)": 124.95123561271757,
        "Satellite Name": "Starlink Shell 1 563",
        "Satellite Number": 563,
        "Semi-Major Axis(m)": 6931778.249405717,
        "Time(s)": 940
    }
]